{
  "type": "FeatureCollection",
  "features": [
    {
      "type": "Feature",
      "properties": {
        "norad_id": 66891,
        "name": "STARLINK-35855",
        "group": "last-30-days",
        "lat": 11.232815168999794,
        "lon": -133.10032875077718,
        "alt_km": 310.2273928066634,
        "timestamp": "2025-12-16T08:59:41.909039+00:00",
        "meta_object_name": "STARLINK-35855",
        "meta_object_id": "2025-283P",
        "meta_epoch": "2025-12-15T14:10:05.360448",
        "meta_mean_motion": 15.87856165,
        "meta_eccentricity": 0.00014667,
        "meta_inclination": 53.1553,
        "meta_ra_of_asc_node": 59.4357,
        "meta_arg_of_pericenter": 43.1248,
        "meta_mean_anomaly": 316.9893,
        "meta_ephemeris_type": 0,
        "meta_classification_type": "U",
        "meta_norad_cat_id": 66891,
        "meta_element_set_no": 999,
        "meta_rev_at_epoch": 290,
        "meta_bstar": -0.0018190174,
        "meta_mean_motion_dot": -0.00476309,
        "meta_mean_motion_ddot": 0,
        "tle_line1": "1 66891U 25283P   25349.59033982 -.00476309  00000+0 -18190-2 0  9993",
        "tle_line2": "2 66891  53.1553  59.4357 0001466  43.1248 316.9893 15.87856165  2908"
      },
      "geometry": {
        "type": "Point",
        "coordinates": [
          -133.10032875077718,
          11.232815168999794
        ]
      }
    },
    {
      "type": "Feature",
      "properties": {
        "norad_id": 66892,
        "name": "STARLINK-35883",
        "group": "last-30-days",
        "lat": 8.110848912699518,
        "lon": -130.678337739899,
        "alt_km": 307.4079783931247,
        "timestamp": "2025-12-16T08:59:41.909230+00:00",
        "meta_object_name": "STARLINK-35883",
        "meta_object_id": "2025-283Q",
        "meta_epoch": "2025-12-15T21:42:38.889792",
        "meta_mean_motion": 15.878867,
        "meta_eccentricity": 0.0001024,
        "meta_inclination": 53.1548,
        "meta_ra_of_asc_node": 57.8391,
        "meta_arg_of_pericenter": 24.2279,
        "meta_mean_anomaly": 335.8795,
        "meta_ephemeris_type": 0,
        "meta_classification_type": "U",
        "meta_norad_cat_id": 66892,
        "meta_element_set_no": 999,
        "meta_rev_at_epoch": 295,
        "meta_bstar": 0.0015891041,
        "meta_mean_motion_dot": 0.00461452,
        "meta_mean_motion_ddot": 0,
        "tle_line1": "1 66892U 25283Q   25349.90461678  .00461452  00000+0  15891-2 0  9992",
        "tle_line2": "2 66892  53.1548  57.8391 0001024  24.2279 335.8795 15.87886700  2951"
      },
      "geometry": {
        "type": "Point",
        "coordinates": [
          -130.678337739899,
          8.110848912699518
        ]
      }
    },
    {
      "type": "Feature",
      "properties": {
        "norad_id": 66893,
        "name": "STARLINK-36033",
        "group": "last-30-days",
        "lat": 7.992684123141475,
        "lon": -130.5878308890408,
        "alt_km": 311.5397066782107,
        "timestamp": "2025-12-16T08:59:41.909243+00:00",
        "meta_object_name": "STARLINK-36033",
        "meta_object_id": "2025-283R",
        "meta_epoch": "2025-12-15T21:42:14.059296",
        "meta_mean_motion": 15.87134851,
        "meta_eccentricity": 0.00064652,
        "meta_inclination": 53.1549,
        "meta_ra_of_asc_node": 57.8368,
        "meta_arg_of_pericenter": 58.95,
        "meta_mean_anomaly": 301.2159,
        "meta_ephemeris_type": 0,
        "meta_classification_type": "U",
        "meta_norad_cat_id": 66893,
        "meta_element_set_no": 999,
        "meta_rev_at_epoch": 295,
        "meta_bstar": 4.2254478e-05,
        "meta_mean_motion_dot": 0.00010479,
        "meta_mean_motion_ddot": 0,
        "tle_line1": "1 66893U 25283R   25349.90432939  .00010479  00000+0  42254-4 0  9995",
        "tle_line2": "2 66893  53.1549  57.8368 0006465  58.9500 301.2159 15.87134851  2956"
      },
      "geometry": {
        "type": "Point",
        "coordinates": [
          -130.5878308890408,
          7.992684123141475
        ]
      }
    },
    {
      "type": "Feature",
      "properties": {
        "norad_id": 66894,
        "name": "STARLINK-35718",
        "group": "last-30-days",
        "lat": 4.702518161858202,
        "lon": -128.08933328281302,
        "alt_km": 311.30127408485623,
        "timestamp": "2025-12-16T08:59:41.909275+00:00",
        "meta_object_name": "STARLINK-35718",
        "meta_object_id": "2025-283S",
        "meta_epoch": "2025-12-15T14:08:02.213664",
        "meta_mean_motion": 15.87892721,
        "meta_eccentricity": 0.00014965,
        "meta_inclination": 53.1553,
        "meta_ra_of_asc_node": 59.4259,
        "meta_arg_of_pericenter": 43.2215,
        "meta_mean_anomaly": 316.8928,
        "meta_ephemeris_type": 0,
        "meta_classification_type": "U",
        "meta_norad_cat_id": 66894,
        "meta_element_set_no": 999,
        "meta_rev_at_epoch": 290,
        "meta_bstar": -0.00189,
        "meta_mean_motion_dot": -0.00494762,
        "meta_mean_motion_ddot": 0,
        "tle_line1": "1 66894U 25283S   25349.58891451 -.00494762  00000+0 -18900-2 0  9990",
        "tle_line2": "2 66894  53.1553  59.4259 0001496  43.2215 316.8928 15.87892721  2906"
      },
      "geometry": {
        "type": "Point",
        "coordinates": [
          -128.08933328281302,
          4.702518161858202
        ]
      }
    },
    {
      "type": "Feature",
      "properties": {
        "norad_id": 66895,
        "name": "STARLINK-35971",
        "group": "last-30-days",
        "lat": 0.31858843708938456,
        "lon": -124.80438615426976,
        "alt_km": 311.6906512262585,
        "timestamp": "2025-12-16T08:59:41.909303+00:00",
        "meta_object_name": "STARLINK-35971",
        "meta_object_id": "2025-283T",
        "meta_epoch": "2025-12-15T14:06:42.643584",
        "meta_mean_motion": 15.87943895,
        "meta_eccentricity": 0.00013371,
        "meta_inclination": 53.1546,
        "meta_ra_of_asc_node": 59.4185,
        "meta_arg_of_pericenter": 36.1404,
        "meta_mean_anomaly": 323.9712,
        "meta_ephemeris_type": 0,
        "meta_classification_type": "U",
        "meta_norad_cat_id": 66895,
        "meta_element_set_no": 999,
        "meta_rev_at_epoch": 290,
        "meta_bstar": -0.0017557515,
        "meta_mean_motion_dot": -0.00462473,
        "meta_mean_motion_ddot": 0,
        "tle_line1": "1 66895U 25283T   25349.58799356 -.00462473  00000+0 -17558-2 0  9994",
        "tle_line2": "2 66895  53.1546  59.4185 0001337  36.1404 323.9712 15.87943895  2901"
      },
      "geometry": {
        "type": "Point",
        "coordinates": [
          -124.80438615426976,
          0.31858843708938456
        ]
      }
    },
    {
      "type": "Feature",
      "properties": {
        "norad_id": 66896,
        "name": "STARLINK-35791",
        "group": "last-30-days",
        "lat": 0.7728756262258958,
        "lon": -125.14317404027636,
        "alt_km": 306.9799135976655,
        "timestamp": "2025-12-16T08:59:41.909316+00:00",
        "meta_object_name": "STARLINK-35791",
        "meta_object_id": "2025-283U",
        "meta_epoch": "2025-12-15T21:40:28.244352",
        "meta_mean_motion": 15.88160125,
        "meta_eccentricity": 6.323e-05,
        "meta_inclination": 53.1548,
        "meta_ra_of_asc_node": 57.8278,
        "meta_arg_of_pericenter": 66.3203,
        "meta_mean_anomaly": 293.7889,
        "meta_ephemeris_type": 0,
        "meta_classification_type": "U",
        "meta_norad_cat_id": 66896,
        "meta_element_set_no": 999,
        "meta_rev_at_epoch": 295,
        "meta_bstar": 0.0018744142,
        "meta_mean_motion_dot": 0.00558044,
        "meta_mean_motion_ddot": 0,
        "tle_line1": "1 66896U 25283U   25349.90310468  .00558044  00000+0  18744-2 0  9990",
        "tle_line2": "2 66896  53.1548  57.8278 0000632  66.3203 293.7889 15.88160125  2950"
      },
      "geometry": {
        "type": "Point",
        "coordinates": [
          -125.14317404027636,
          0.7728756262258958
        ]
      }
    },
    {
      "type": "Feature",
      "properties": {
        "norad_id": 66897,
        "name": "STARLINK-36079",
        "group": "last-30-days",
        "lat": -2.181273092023425,
        "lon": -122.93499297998636,
        "alt_km": 311.21578453609163,
        "timestamp": "2025-12-16T08:59:41.909327+00:00",
        "meta_object_name": "STARLINK-36079",
        "meta_object_id": "2025-283V",
        "meta_epoch": "2025-12-15T12:35:20.716512",
        "meta_mean_motion": 15.88122133,
        "meta_eccentricity": 8.861e-05,
        "meta_inclination": 53.1551,
        "meta_ra_of_asc_node": 59.7341,
        "meta_arg_of_pericenter": 99.0804,
        "meta_mean_anomaly": 261.0323,
        "meta_ephemeris_type": 0,
        "meta_classification_type": "U",
        "meta_norad_cat_id": 66897,
        "meta_element_set_no": 999,
        "meta_rev_at_epoch": 289,
        "meta_bstar": -0.001973272,
        "meta_mean_motion_dot": -0.0052087,
        "meta_mean_motion_ddot": 0,
        "tle_line1": "1 66897U 25283V   25349.52454533 -.00520870  00000+0 -19733-2 0  9998",
        "tle_line2": "2 66897  53.1551  59.7341 0000886  99.0804 261.0323 15.88122133  2899"
      },
      "geometry": {
        "type": "Point",
        "coordinates": [
          -122.93499297998636,
          -2.181273092023425
        ]
      }
    }
  ]
}